{
    "links": {
        "self": "http://www.neowsapp.com/rest/v1/neo/3092292?api_key=iIulBulltgU6a56xZRHN4H3l9WmuAYTsLGpBGhQ2"
    },
    "id": "3092292",
    "neo_reference_id": "3092292",
    "name": "(2001 FE7)",
    "designation": "2001 FE7",
    "nasa_jpl_url": "http://ssd.jpl.nasa.gov/sbdb.cgi?sstr=3092292",
    "absolute_magnitude_h": 23.4,
    "estimated_diameter": {
        "kilometers": {
            "estimated_diameter_min": 0.0555334912,
            "estimated_diameter_max": 0.1241766613
        },
        "meters": {
            "estimated_diameter_min": 55.5334911581,
            "estimated_diameter_max": 124.1766612574
        },
        "miles": {
            "estimated_diameter_min": 0.0345069009,
            "estimated_diameter_max": 0.0771597762
        },
        "feet": {
            "estimated_diameter_min": 182.1964991311,
            "estimated_diameter_max": 407.4037573197
        }
    },
    "is_potentially_hazardous_asteroid": false,
    "close_approach_data": [
        {
            "close_approach_date": "2001-03-24",
            "close_approach_date_full": "2001-Mar-24 12:59",
            "epoch_date_close_approach": 985438740000,
            "relative_velocity": {
                "kilometers_per_second": "6.1795356519",
                "kilometers_per_hour": "22246.3283468222",
                "miles_per_hour": "13823.003299724"
            },
            "miss_distance": {
                "astronomical": "0.0779255332",
                "lunar": "30.3130324148",
                "kilometers": "11657493.785334284",
                "miles": "7243630.7465857592"
            },
            "orbiting_body": "Earth"
        }
    ],
    "orbital_data": {
        "orbit_id": "13",
        "orbit_determination_date": "2017-04-06 09:16:29",
        "first_observation_date": "2001-03-19",
        "last_observation_date": "2001-03-31",
        "data_arc_in_days": 12,
        "observations_used": 22,
        "orbit_uncertainty": "9",
        "minimum_orbit_intersection": ".0775177",
        "jupiter_tisserand_invariant": "3.633",
        "epoch_osculation": "2451989.5",
        "eccentricity": ".4764899612797246",
        "semi_major_axis": "2.05168620245568",
        "inclination": "6.360352035498947",
        "ascending_node_longitude": ".8015660054111244",
        "orbital_period": "1073.408014624731",
        "perihelion_distance": "1.074078323289428",
        "perihelion_argument": "180.1101399855306",
        "aphelion_distance": "3.029294081621933",
        "perihelion_time": "2451990.655558455988",
        "mean_anomaly": "359.6124483528278",
        "mean_motion": ".3353803913285087",
        "equinox": "J2000",
        "orbit_class": {
            "orbit_class_type": "AMO",
            "orbit_class_description": "Near-Earth asteroid orbits similar to that of 1221 Amor",
            "orbit_class_range": "1.017 AU < q (perihelion) < 1.3 AU"
        }
    },
    "is_sentry_object": false
}